{"type": "FeatureCollection", "features": [ {"type": "Feature", "properties": {"norad_id": 66875, "name": "STARLINK-36053", "group": "last-30-days", "lat": 28.062841783994227, "lon": -105.83315347615056, "alt_km": 312.2683844259036, "timestamp": "2025-12-14T20:40:30.517300+00:00", "meta": {"OBJECT_NAME": "STARLINK-36053", "OBJECT_ID": "2025-281AD", "EPOCH": "2025-12-14T06:00:02.999808", "MEAN_MOTION": 15.8724977, "ECCENTRICITY": 0.00014136, "INCLINATION": 43.0001, "RA_OF_ASC_NODE": 112.8368, "ARG_OF_PERICENTER": 265.978, "MEAN_ANOMALY": 334.5381, "EPHEMERIS_TYPE": 0, "CLASSIFICATION_TYPE": "U", "NORAD_CAT_ID": 66875, "ELEMENT_SET_NO": 999, "REV_AT_EPOCH": 167, "BSTAR": -0.0064740678, "MEAN_MOTION_DOT": -0.01545566, "MEAN_MOTION_DDOT": 0}, "tle": {"line1": "1 66875U 25281AD  25348.25003472 -.01545566  00000+0 -64741-2 0  9992", "line2": "2 66875  43.0001 112.8368 0001413 265.9780 334.5381 15.87249770  1678"}}, "geometry": {"type": "Point", "coordinates": [-105.83315347615056, 28.062841783994227]}}, {"type": "Feature", "properties": {"norad_id": 66876, "name": "STARLINK-35702", "group": "last-30-days", "lat": 30.816838140715088, "lon": -110.72445996343536, "alt_km": 311.902947934489, "timestamp": "2025-12-14T20:40:30.517311+00:00", "meta": {"OBJECT_NAME": "STARLINK-35702", "OBJECT_ID": "2025-281AE", "EPOCH": "2025-12-14T06:00:02.999808", "MEAN_MOTION": 15.87272776, "ECCENTRICITY": 0.00015428, "INCLINATION": 43.0004, "RA_OF_ASC_NODE": 112.8506, "ARG_OF_PERICENTER": 267.4244, "MEAN_ANOMALY": 327.9545, "EPHEMERIS_TYPE": 0, "CLASSIFICATION_TYPE": "U", "NORAD_CAT_ID": 66876, "ELEMENT_SET_NO": 999, "REV_AT_EPOCH": 167, "BSTAR": -0.0064386623, "MEAN_MOTION_DOT": -0.01539789, "MEAN_MOTION_DDOT": 0}, "tle": {"line1": "1 66876U 25281AE  25348.25003472 -.01539789  00000+0 -64387-2 0  9999", "line2": "2 66876  43.0004 112.8506 0001542 267.4244 327.9545 15.87272776  1671"}}, "geometry": {"type": "Point", "coordinates": [-110.72445996343536, 30.816838140715088]}}, {"type": "Feature", "properties": {"norad_id": 66877, "name": "ZQ-3 R/B", "group": "last-30-days", "lat": -21.63652410690211, "lon": 34.560764901306406, "alt_km": 833.350781066224, "timestamp": "2025-12-14T20:40:30.517322+00:00", "meta": {"OBJECT_NAME": "ZQ-3 R/B", "OBJECT_ID": "2025-282A", "EPOCH": "2025-12-14T07:41:19.484160", "MEAN_MOTION": 14.62852731, "ECCENTRICITY": 0.07651193, "INCLINATION": 56.952, "RA_OF_ASC_NODE": 51.6111, "ARG_OF_PERICENTER": 222.6896, "MEAN_ANOMALY": 131.2199, "EPHEMERIS_TYPE": 0, "CLASSIFICATION_TYPE": "U", "NORAD_CAT_ID": 66877, "ELEMENT_SET_NO": 999, "REV_AT_EPOCH": 162, "BSTAR": 0.00023301572, "MEAN_MOTION_DOT": 0.01191657, "MEAN_MOTION_DDOT": 7.534814e-06}, "tle": {"line1": "1 66877U 25282A   25348.32036440  .01191657  75348-5  23302-3 0  9992", "line2": "2 66877  56.9520  51.6111 0765119 222.6896 131.2199 14.62852731  1626"}}, "geometry": {"type": "Point", "coordinates": [34.560764901306406, -21.63652410690211]}}, {"type": "Feature", "properties": {"norad_id": 66878, "name": "STARLINK-35866", "group": "last-30-days", "lat": 45.5509869461156, "lon": -166.65819400912585, "alt_km": 297.8730651871556, "timestamp": "2025-12-14T20:40:30.517332+00:00", "meta": {"OBJECT_NAME": "STARLINK-35866", "OBJECT_ID": "2025-283A", "EPOCH": "2025-12-14T06:00:02.999808", "MEAN_MOTION": 15.9067315, "ECCENTRICITY": 8.761e-05, "INCLINATION": 53.1558, "RA_OF_ASC_NODE": 66.3035, "ARG_OF_PERICENTER": 89.0404, "MEAN_ANOMALY": 126.0221, "EPHEMERIS_TYPE": 0, "CLASSIFICATION_TYPE": "U", "NORAD_CAT_ID": 66878, "ELEMENT_SET_NO": 999, "REV_AT_EPOCH": 267, "BSTAR": -0.0039239528, "MEAN_MOTION_DOT": -0.01103372, "MEAN_MOTION_DDOT": 0}, "tle": {"line1": "1 66878U 25283A   25348.25003472 -.01103372  00000+0 -39240-2 0  9998", "line2": "2 66878  53.1558  66.3035 0000876  89.0404 126.0221 15.90673150  2679"}}, "geometry": {"type": "Point", "coordinates": [-166.65819400912585, 45.5509869461156]}}, {"type": "Feature", "properties": {"norad_id": 66879, "name": "STARLINK-35749", "group": "last-30-days", "lat": 42.79911777859463, "lon": -160.78990482811108, "alt_km": 298.0314978884335, "timestamp": "2025-12-14T20:40:30.517343+00:00", "meta": {"OBJECT_NAME": "STARLINK-35749", "OBJECT_ID": "2025-283B", "EPOCH": "2025-12-14T06:00:02.999808", "MEAN_MOTION": 15.90758303, "ECCENTRICITY": 0.00011244, "INCLINATION": 53.1555, "RA_OF_ASC_NODE": 66.2932, "ARG_OF_PERICENTER": 82.5207, "MEAN_ANOMALY": 137.3847, "EPHEMERIS_TYPE": 0, "CLASSIFICATION_TYPE": "U", "NORAD_CAT_ID": 66879, "ELEMENT_SET_NO": 999, "REV_AT_EPOCH": 267, "BSTAR": -0.0039313849, "MEAN_MOTION_DOT": -0.01251246, "MEAN_MOTION_DDOT": 0.00045423161}, "tle": {"line1": "1 66879U 25283B   25348.25003472 -.01251246  45423-3 -39314-2 0  9997", "line2": "2 66879  53.1555  66.2932 0001124  82.5207 137.3847 15.90758303  2671"}}, "geometry": {"type": "Point", "coordinates": [-160.78990482811108, 42.79911777859463]}}, {"type": "Feature", "properties": {"norad_id": 66880, "name": "STARLINK-35844", "group": "last-30-days", "lat": 44.28591777380714, "lon": -163.81120171252704, "alt_km": 297.96530752579474, "timestamp": "2025-12-14T20:40:30.517353+00:00", "meta": {"OBJECT_NAME": "STARLINK-35844", "OBJECT_ID": "2025-283C", "EPOCH": "2025-12-14T06:00:02.999808", "MEAN_MOTION": 15.90716225, "ECCENTRICITY": 8.699e-05, "INCLINATION": 53.1558, "RA_OF_ASC_NODE": 66.2988, "ARG_OF_PERICENTER": 90.445, "MEAN_ANOMALY": 126.9081, "EPHEMERIS_TYPE": 0, "CLASSIFICATION_TYPE": "U", "NORAD_CAT_ID": 66880, "ELEMENT_SET_NO": 999, "REV_AT_EPOCH": 267, "BSTAR": -0.0039312812, "MEAN_MOTION_DOT": -0.01248523, "MEAN_MOTION_DDOT": 0.0004522525}, "tle": {"line1": "1 66880U 25283C   25348.25003472 -.01248523  45225-3 -39313-2 0  9992", "line2": "2 66880  53.1558  66.2988 0000869  90.4450 126.9081 15.90716225  2671"}}, "geometry": {"type": "Point", "coordinates": [-163.81120171252704, 44.28591777380714]}}, {"type": "Feature", "properties": {"norad_id": 66881, "name": "STARLINK-35860", "group": "last-30-days", "lat": 41.602120710415115, "lon": -158.56263729292596, "alt_km": 298.12955727764256, "timestamp": "2025-12-14T20:40:30.517363+00:00", "meta": {"OBJECT_NAME": "STARLINK-35860", "OBJECT_ID": "2025-283D", "EPOCH": "2025-12-14T06:00:02.999808", "MEAN_MOTION": 15.90805222, "ECCENTRICITY": 0.00011097, "INCLINATION": 53.1555, "RA_OF_ASC_NODE": 66.2889, "ARG_OF_PERICENTER": 86.2389, "MEAN_ANOMALY": 135.6179, "EPHEMERIS_TYPE": 0, "CLASSIFICATION_TYPE": "U", "NORAD_CAT_ID": 66881, "ELEMENT_SET_NO": 999, "REV_AT_EPOCH": 267, "BSTAR": -0.0039623873, "MEAN_MOTION_DOT": -0.01263999, "MEAN_MOTION_DDOT": 0.0004629006}, "tle": {"line1": "1 66881U 25283D   25348.25003472 -.01263999  46290-3 -39624-2 0  9995", "line2": "2 66881  53.1555  66.2889 0001109  86.2389 135.6179 15.90805222  2672"}}, "geometry": {"type": "Point", "coordinates": [-158.56263729292596, 41.602120710415115]}}, {"type": "Feature", "properties": {"norad_id": 66882, "name": "STARLINK-35912", "group": "last-30-days", "lat": 40.176592101001326, "lon": -156.1062362536983, "alt_km": 298.3424795269175, "timestamp": "2025-12-14T20:40:30.517378+00:00", "meta": {"OBJECT_NAME": "STARLINK-35912", "OBJECT_ID": "2025-283E", "EPOCH": "2025-12-14T06:00:02.999808", "MEAN_MOTION": 15.90845291, "ECCENTRICITY": 9.352e-05, "INCLINATION": 53.1555, "RA_OF_ASC_NODE": 66.2846, "ARG_OF_PERICENTER": 77.5914, "MEAN_ANOMALY": 146.5134, "EPHEMERIS_TYPE": 0, "CLASSIFICATION_TYPE": "U", "NORAD_CAT_ID": 66882, "ELEMENT_SET_NO": 999, "REV_AT_EPOCH": 267, "BSTAR": -0.0039432928, "MEAN_MOTION_DOT": -0.0126051, "MEAN_MOTION_DDOT": 0.00046075321}, "tle": {"line1": "1 66882U 25283E   25348.25003472 -.01260510  46075-3 -39433-2 0  9991", "line2": "2 66882  53.1555  66.2846 0000935  77.5914 146.5134 15.90845291  2671"}}, "geometry": {"type": "Point", "coordinates": [-156.1062362536983, 40.176592101001326]}}, {"type": "Feature", "properties": {"norad_id": 66883, "name": "STARLINK-35947", "group": "last-30-days", "lat": 38.59602710361071, "lon": -153.59159745563593, "alt_km": 298.48712820020137, "timestamp": "2025-12-14T20:40:30.517388+00:00", "meta": {"OBJECT_NAME": "STARLINK-35947", "OBJECT_ID": "2025-283F", "EPOCH": "2025-12-14T06:00:02.999808", "MEAN_MOTION": 15.90892797, "ECCENTRICITY": 8.482e-05, "INCLINATION": 53.1556, "RA_OF_ASC_NODE": 66.2799, "ARG_OF_PERICENTER": 87.8565, "MEAN_ANOMALY": 138.664, "EPHEMERIS_TYPE": 0, "CLASSIFICATION_TYPE": "U", "NORAD_CAT_ID": 66883, "ELEMENT_SET_NO": 999, "REV_AT_EPOCH": 272, "BSTAR": -0.0039678788, "MEAN_MOTION_DOT": -0.01271328, "MEAN_MOTION_DDOT": 0.00046818956}, "tle": {"line1": "1 66883U 25283F   25348.25003472 -.01271328  46819-3 -39679-2 0  9999", "line2": "2 66883  53.1556  66.2799 0000848  87.8565 138.6640 15.90892797  2722"}}, "geometry": {"type": "Point", "coordinates": [-153.59159745563593, 38.59602710361071]}}, {"type": "Feature", "properties": {"norad_id": 66884, "name": "STARLINK-36057", "group": "last-30-days", "lat": 35.33865659954657, "lon": -148.9583809325359, "alt_km": 298.8060220954185, "timestamp": "2025-12-14T20:40:30.517398+00:00", "meta": {"OBJECT_NAME": "STARLINK-36057", "OBJECT_ID": "2025-283G", "EPOCH": "2025-12-14T06:00:02.999808", "MEAN_MOTION": 15.90983966, "ECCENTRICITY": 8.55e-05, "INCLINATION": 53.1555, "RA_OF_ASC_NODE": 66.2694, "ARG_OF_PERICENTER": 87.7176, "MEAN_ANOMALY": 143.5426, "EPHEMERIS_TYPE": 0, "CLASSIFICATION_TYPE": "U", "NORAD_CAT_ID": 66884, "ELEMENT_SET_NO": 999, "REV_AT_EPOCH": 267, "BSTAR": -0.0039782839, "MEAN_MOTION_DOT": -0.01280529, "MEAN_MOTION_DDOT": 0.00047479151}, "tle": {"line1": "1 66884U 25283G   25348.25003472 -.01280529  47479-3 -39783-2 0  9992", "line2": "2 66884  53.1555  66.2694 0000855  87.7176 143.5426 15.90983966  2671"}}, "geometry": {"type": "Point", "coordinates": [-148.9583809325359, 35.33865659954657]}}]}